[{"OBJECT_NAME":"ORBCOMM FM32","OBJECT_ID":"1999-065C","EPOCH":"2026-03-09T01:02:29.080032","MEAN_MOTION":14.3696516,"ECCENTRICITY":0.00057226,"INCLINATION":45.0154,"RA_OF_ASC_NODE":287.2018,"ARG_OF_PERICENTER":281.4865,"MEAN_ANOMALY":78.534,"EPHEMERIS_TYPE":0,"CLASSIFICATION_TYPE":"U","NORAD_CAT_ID":25982,"ELEMENT_SET_NO":999,"REV_AT_EPOCH":37268,"BSTAR":0.00040930249,"MEAN_MOTION_DOT":1.082e-5,"MEAN_MOTION_DDOT":0},{"OBJECT_NAME":"FENGYUN 1C DEB","OBJECT_ID":"1999-025AVF","EPOCH":"2026-03-09T05:39:36.154368","MEAN_MOTION":14.50212337,"ECCENTRICITY":0.00848599,"INCLINATION":99.1129,"RA_OF_ASC_NODE":222.7676,"ARG_OF_PERICENTER":307.6335,"MEAN_ANOMALY":176.0537,"EPHEMERIS_TYPE":0,"CLASSIFICATION_TYPE":"U","NORAD_CAT_ID":30821,"ELEMENT_SET_NO":999,"REV_AT_EPOCH":42,"BSTAR":0.00065766164,"MEAN_MOTION_DOT":2.623e-5,"MEAN_MOTION_DDOT":0}]
